{"type": "FeatureCollection", "features": [{"type": "Feature", "properties": {"name": "Mizoram"}, "geometry": {"type": "Polygon", "coordinates": [[[92.59966988958578, 22.011024612034706], [92.25713182404931, 23.813327620668932], [92.29536151886364, 24.245000499929915], [92.53238562671255, 24.17763753469492], [92.7617637955986, 24.51307760647734], [92.79999349041293, 24.41959430778388], [93.00949221799551, 24.412720535821126], [92.97585008655889, 24.11577358703013], [93.39637672951665, 23.926057480858105], [93.42390210978297, 23.527378707018347], [93.35508865911716, 23.07370975747655], [93.12265211464597, 23.006346792241555], [93.1608818094603, 22.180119402318468], [93.050780288395, 22.20074071820673], [92.93914957953713, 22.01652362960491], [92.70518384727337, 22.1512495600749], [92.59966988958578, 22.011024612034706]]]}}, {"type": "Feature", "properties": {"name": "Tamil Nadu"}, "geometry": {"type": "Polygon", "coordinates": [[[77.26191633007251, 8.506812214007237], [77.1701650625181, 8.741895215133441], [77.25579957890221, 8.87937065438853], [77.14875643342207, 9.009972321680866], [77.40260160698928, 9.525505218887453], [77.16710668693295, 9.61211474561816], [77.28791252254626, 10.232128976658615], [77.18086937706612, 10.357231626380745], [76.98207496403154, 10.219756187125656], [76.8918528842697, 10.259624064509632], [76.81539349464101, 10.42321983722319], [76.90714476219543, 10.782030733678972], [76.65635796421337, 10.938752734429777], [76.75422598293808, 11.078977682469967], [76.7068211613683, 11.239823946398422], [76.44227167325306, 11.201330823406998], [76.54778563094064, 11.35942757855035], [76.23430213346305, 11.52714761444156], [76.51108512391887, 11.704490931080626], [76.56001913328123, 11.62200566752757], [76.84750643828507, 11.594510579676554], [76.90867394998801, 11.795224720988985], [77.42859779946303, 11.767729633137968], [77.4943528745437, 11.943698195384481], [77.67632622185997, 11.951946721739787], [77.74666886031835, 12.15541037183732], [77.4714150576551, 12.243394652960578], [77.61515871015702, 12.367122548290158], [77.60139602002386, 12.668193760258806], [77.73902292135548, 12.672318023436457], [77.8307741889099, 12.866158392786133], [78.05709398221079, 12.852410848860625], [78.41186555008787, 12.626951128482279], [78.59230970961156, 12.78229837484053], [78.62136427767045, 12.991261042508267], [78.89203051695598, 13.095742376342134], [79.1626967562415, 13.020130884751834], [79.22845183132218, 13.157606324006924], [79.43795055890476, 13.187850920643044], [79.40583761526071, 13.334949640645991], [79.79425131457441, 13.240091587559977], [80.03739217359362, 13.538413290743524], [80.21477795753215, 13.490296887004241], [80.26829953027223, 13.56453362420199], [80.3447589199009, 13.275835201766302], [80.13831856790347, 12.411114688851786], [79.84012694835161, 11.956070984917439], [79.68567898130168, 11.880459493327141], [79.80801400470757, 11.844715879120816], [79.85083126289963, 10.985494383776505], [79.72390867611603, 10.92912945368192], [79.84930207510706, 10.827397628633154], [79.86000638965507, 10.282994889182998], [79.38748736174983, 10.317363748996769], [79.26668152613651, 10.229379467873512], [79.25138964821078, 10.050661396841896], [78.89967645591885, 9.469140288792866], [79.06482873751679, 9.298670744116555], [79.33549497680232, 9.311043533649514], [79.30338203315827, 9.245055322807069], [78.87215107565252, 9.257428112340028], [78.38434016982154, 9.09383233962647], [78.1717830666538, 8.883494917566184], [78.05709398221079, 8.378960055500004], [77.55552038624664, 8.076514089138806], [77.09829323626714, 8.292350528769298], [77.26191633007251, 8.506812214007237]]]}}, {"type": "Feature", "properties": {"name": "Madhya Pradesh"}, "geometry": {"type": "Polygon", "coordinates": [[[76.48967649482285, 21.19167099407437], [76.38263334934268, 21.076191625100094], [76.1670178705898, 21.0789411338852], [76.09514604433885, 21.37176381949854], [75.21127550023131, 21.411631696882516], [75.05223996980365, 21.566978943240766], [74.58277931748356, 21.664586505111878], [74.43291891381133, 22.03027117353042], [74.28152932234656, 21.93403836605186], [74.09496841165257, 22.01652362960491], [74.06897221917882, 22.35608796456498], [74.18977805479214, 22.32034435035866], [74.21577424726588, 22.44132273690314], [74.11943541633374, 22.419326666622325], [74.05826790463081, 22.549928333914657], [74.37939734107127, 22.63516310625281], [74.46044429407766, 22.907364475977893], [74.31975901716089, 23.059962213551042], [74.73416890894833, 23.220808477479498], [74.52925774474348, 23.321165548135713], [74.92225900743489, 23.66622890066599], [74.9742513923824, 24.040162095439833], [74.90849631730173, 24.212006394508695], [74.7540483502518, 24.242250991144815], [74.85497474456166, 24.423718570961533], [74.69746840192657, 24.48283300984122], [74.80451154740673, 24.735787818070584], [74.88861687599828, 24.634055993021818], [74.99260164589327, 24.693170431901507], [74.82592017650276, 24.899383590784144], [75.03847727967049, 24.845768169474656], [75.19139605892785, 25.03685903003923], [75.35196077714808, 25.01898722293607], [75.18375011996498, 24.748160607603545], [75.60886432630045, 24.6821723967611], [75.78472092244641, 24.761908151529052], [75.92081863598546, 24.54332220311346], [75.900939194682, 24.442965132457246], [75.72814097412119, 24.396223483110514], [75.83671330739391, 24.05665914815044], [75.70214478164743, 23.96592535824208], [75.52170062212375, 24.02503979712177], [75.46206229821338, 23.917808954502803], [75.68991127930684, 23.74733940982649], [76.1272589879829, 24.08827849917911], [76.11808386122746, 24.194134587405532], [76.64412446187278, 24.26974607899583], [76.88114856972169, 24.130895885348192], [76.8169226824336, 24.533698922365602], [76.97748740065381, 24.460836939560405], [77.06923866820824, 24.55706974703897], [77.03406734897905, 24.70829273021957], [76.804689180093, 24.807275046483234], [76.9499620203875, 24.869138994148024], [76.87656100634396, 25.040983293216886], [77.31237952722745, 25.080851170600862], [77.41177673374473, 25.223825627426155], [77.31390871502002, 25.43141354070134], [77.22368663525818, 25.318683680512166], [76.67012065434653, 25.348928277148286], [76.51567268729659, 25.527646348179903], [76.54625644314807, 25.838340840896407], [77.90417520295343, 26.659069213249293], [78.08920692585484, 26.6755662659599], [78.11214474274344, 26.79516989811183], [78.35834397734779, 26.86940663530958], [78.78039980809811, 26.769049564653365], [79.006719601399, 26.67144200278225], [79.13517137597518, 26.4404832648337], [78.76357874237979, 25.72011196313703], [78.81098356394958, 25.619754892480813], [78.45162443269479, 25.57163848874153], [78.33999372383691, 25.43278829509389], [78.44703686931706, 25.12209380237739], [78.1717830666538, 24.876012766110776], [78.38892773319927, 24.262872307033078], [78.50208762984971, 24.39072446554031], [78.80639600057185, 24.17901228908747], [78.9715482821698, 24.348107079371232], [78.88285539020053, 24.640929764984573], [78.7513452400392, 24.599687133208047], [78.76969549355009, 24.859515713400167], [78.63206859221846, 24.95712327527128], [78.51279194439772, 25.27606629434309], [78.65959397248479, 25.38329713696206], [78.77428305692781, 25.35305254032594], [78.73146579873575, 25.457533874159807], [78.8843845779931, 25.515273558646946], [78.96084396762178, 25.344804013970634], [78.87979701461539, 25.15783741658371], [79.06329954972422, 25.222450873033605], [79.13058381259746, 25.109721012844428], [79.24527289704048, 25.113845276022083], [79.32326147446173, 25.149588890228404], [79.28044421626967, 25.32418269808237], [79.35231604252064, 25.329681715652573], [79.43642137111217, 25.254070224062275], [79.40583761526071, 25.106971504059327], [79.56946070906608, 25.17158496050922], [79.84012694835161, 25.09872297770402], [80.03280461021589, 25.34205450518553], [80.315704351842, 25.388796154532262], [80.43039343628503, 25.174334469294323], [80.2637119668945, 25.024486240506274], [80.40133886822613, 25.069853135460455], [80.4777982578548, 24.97636983676699], [80.84480332807247, 25.18670725882728], [80.8600952059982, 24.928253433027713], [81.12005713073572, 24.903507853961795], [81.2775634733708, 25.166085942939016], [81.54058377369347, 25.18808201321983], [81.8922969659854, 24.98874262629995], [81.94276016314032, 24.845768169474656], [82.216484778011, 24.793527502557723], [82.2975317310174, 24.606560905170802], [82.67065355240535, 24.69729469507916], [82.77310913450779, 24.642304519377124], [82.7440545664489, 24.165264745161963], [82.66453680123507, 24.128146376563087], [82.81286801711471, 23.96180109506443], [82.63548223317616, 23.83807319973485], [81.80972082518642, 23.80782860309873], [81.60328047318899, 23.88481484908158], [81.69656092853597, 23.721219076368023], [81.61092641215185, 23.512256408700285], [81.91676397066658, 23.534252478981102], [82.10332488136055, 23.39815179411856], [82.19966371229269, 23.314291776172958], [82.12320432266401, 23.10395435411267], [81.94276016314032, 23.079208775046755], [81.62163072669986, 22.5375555443817], [81.11088200398028, 22.435823719332934], [81.00383885850013, 22.05914101577399], [80.90750002756799, 22.110006928298368], [80.71482236570372, 21.661836996326777], [80.66130079296364, 21.333270696507114], [80.26829953027223, 21.61784485576515], [79.53887695321461, 21.540858609782298], [79.49605969502255, 21.674209785859738], [79.23456858249247, 21.718201926421365], [79.22386426794445, 21.64808945240127], [78.91649752163715, 21.590349767914134], [78.89967645591885, 21.50099073239832], [78.4332741791839, 21.49686646922067], [78.34305209942205, 21.58897501352158], [77.88429576164997, 21.384136609031497], [77.48823612337341, 21.37451332828364], [77.45459399193679, 21.55323139931526], [77.5753998275501, 21.52711106585679], [77.47906099661796, 21.7704425933383], [76.85515237724793, 21.613720592587498], [76.62118664498416, 21.331895942114564], [76.62271583277675, 21.184797222111616], [76.48967649482285, 21.19167099407437]]]}}, {"type": "Feature", "properties": {"name": "Maharashtra"}, "geometry": {"type": "Polygon", "coordinates": [[[74.31517145378317, 16.554624428000192], [74.31670064157575, 16.32641519883674], [74.48032373538112, 16.249428952853894], [74.34575520963465, 15.764140652283427], [74.20965749609559, 15.780637704994037], [73.99098364175757, 15.611542914710277], [73.93899125681007, 15.742144582002613], [73.68514608324284, 15.728397038077103], [73.51081867488945, 15.93735970574484], [73.36860421018011, 16.363533567435617], [73.28908644496629, 17.115524220160957], [72.97254457190354, 18.124593944293316], [73.02912452022876, 18.26481889233351], [72.91443543578575, 18.354177927849317], [72.65447351104824, 19.836163163019187], [72.7079950837883, 20.073995672930494], [72.87314736538626, 20.22659341050364], [73.1376968535015, 20.086368462463447], [73.4160090317499, 20.204597340222826], [73.47411816786769, 20.720130237429416], [73.74478440715322, 20.564782991071162], [73.91758262771404, 20.724254500607067], [73.88852805965513, 20.9332171682748], [73.66679582973197, 21.154552625475496], [73.8151270456116, 21.17379918697121], [74.04603440229022, 21.446000556696287], [74.32128820495346, 21.49824122361322], [74.16378186231839, 21.568353697633317], [73.83500648691506, 21.520237293894034], [73.81665623340417, 21.840555067358395], [74.43291891381133, 22.03027117353042], [74.58277931748356, 21.664586505111878], [75.05223996980365, 21.566978943240766], [75.21127550023131, 21.411631696882516], [76.09514604433885, 21.37176381949854], [76.1670178705898, 21.0789411338852], [76.62271583277675, 21.184797222111616], [76.78175136320439, 21.55873041688546], [76.99889602974986, 21.6920815929629], [77.47906099661796, 21.7704425933383], [77.5753998275501, 21.52711106585679], [77.45459399193679, 21.55323139931526], [77.48823612337341, 21.37451332828364], [77.88429576164997, 21.384136609031497], [78.34305209942205, 21.58897501352158], [78.4332741791839, 21.49686646922067], [78.89967645591885, 21.50099073239832], [78.91649752163715, 21.590349767914134], [79.22386426794445, 21.64808945240127], [79.23456858249247, 21.718201926421365], [79.49605969502255, 21.674209785859738], [79.53887695321461, 21.540858609782298], [80.26829953027223, 21.61784485576515], [80.66130079296364, 21.333270696507114], [80.43956856304047, 21.096812940988357], [80.46403556772165, 20.92909290509715], [80.54661170852062, 20.93459192266735], [80.52061551604687, 20.579905289389224], [80.61695434697901, 20.585404306959425], [80.62612947373445, 20.33244949873006], [80.39522211705584, 20.244465217606802], [80.54508252072804, 20.10011600638896], [80.46862313109936, 19.82653988227133], [80.8952665252274, 19.519969652732478], [80.75152287272549, 19.28763616039138], [80.5771954643721, 19.397616511795448], [80.33252541756032, 19.144661703566086], [80.2759454692351, 18.71986259626786], [80.11843912660001, 18.679994718883883], [79.91352796239515, 18.825718684494277], [79.9395241548689, 19.03468135216201], [79.8584772018625, 19.102044317397006], [79.97775384968324, 19.398991266188], [79.806484816915, 19.579084091612167], [79.47159269034137, 19.500723091236765], [79.25291883600335, 19.592831635537678], [79.19022213650783, 19.459480459460238], [78.93637696294061, 19.5502142493686], [78.95625640424407, 19.65607033759502], [78.84156731980104, 19.761926425821436], [78.43174499139133, 19.814167092738373], [78.30635159240029, 19.911774654609488], [78.30940996798543, 19.48147652974105], [78.17484144223896, 19.238145002259543], [77.86288713255394, 19.304133213101988], [77.79713205747328, 19.073174475153436], [77.94852164893805, 18.84359049159744], [77.72984779460003, 18.66624717495837], [77.73902292135548, 18.5562668235543], [77.59680845664613, 18.549393051591544], [77.55093282286893, 18.292313980184527], [77.4652983064848, 18.262069383548408], [77.31696709060516, 18.442162208972576], [77.06465110483052, 18.150714277751785], [76.95149120818007, 18.18783264635066], [76.91937826453602, 17.915631276625582], [76.74046329280492, 17.89913422391497], [76.79092648995984, 17.826272241109773], [76.68541253227227, 17.681923029891927], [76.52331862625945, 17.76028403026733], [76.33217015218776, 17.596688257553772], [76.38263334934268, 17.314863607080838], [75.93152295053348, 17.323112133436144], [75.63333133098162, 17.477084625401844], [75.57369300707126, 17.383601326708384], [75.66544427462567, 16.97942353529842], [75.28008895089712, 16.956052710625055], [75.18222093217241, 16.843322850435882], [75.08894047682541, 16.9519284474474], [74.90237956613144, 16.862569411931595], [74.91920063184975, 16.773210376415786], [74.695939214134, 16.715470691928648], [74.63018413905334, 16.58349427024376], [74.31517145378317, 16.554624428000192]]]}}, {"type": "Feature", "properties": {"name": "Chhattisgarh"}, "geometry": {"type": "Polygon", "coordinates": [[[82.2455393460699, 18.919201983187737], [81.52987945914545, 18.240073313267594], [81.39684012119154, 17.818023714754467], [81.01607236084072, 17.794652890081103], [80.97937185381895, 18.165836576069843], [80.7561104361032, 18.169960839247498], [80.63683378828246, 18.52327271813308], [80.2759454692351, 18.71986259626786], [80.33252541756032, 19.144661703566086], [80.5771954643721, 19.397616511795448], [80.75152287272549, 19.28763616039138], [80.8952665252274, 19.519969652732478], [80.46862313109936, 19.82653988227133], [80.54508252072804, 20.10011600638896], [80.39522211705584, 20.244465217606802], [80.62612947373445, 20.33244949873006], [80.61695434697901, 20.585404306959425], [80.52061551604687, 20.579905289389224], [80.54661170852062, 20.93459192266735], [80.46403556772165, 20.92909290509715], [80.43956856304047, 21.096812940988357], [80.61389597139386, 21.226039853888146], [80.73776018259233, 21.473495644547306], [80.71482236570372, 21.661836996326777], [80.90750002756799, 22.110006928298368], [81.00383885850013, 22.05914101577399], [81.11088200398028, 22.435823719332934], [81.62163072669986, 22.5375555443817], [81.94276016314032, 23.079208775046755], [82.12320432266401, 23.10395435411267], [82.19966371229269, 23.314291776172958], [82.10332488136055, 23.39815179411856], [81.91676397066658, 23.534252478981102], [81.61092641215185, 23.512256408700285], [81.69656092853597, 23.721219076368023], [81.60328047318899, 23.88481484908158], [82.49785533184455, 23.784457778425363], [82.81286801711471, 23.96180109506443], [83.09118019536311, 23.87106730515607], [83.32973349100459, 24.102026043104622], [83.43218907310701, 24.08552899039401], [83.57134516223121, 23.862818778800765], [83.7059136879777, 23.820201392631688], [83.7747271386435, 23.6098639705714], [84.01633880987013, 23.634609549637318], [83.96281723713005, 23.385779004585604], [84.07444794598793, 23.33353833766867], [84.06374363143992, 23.113577634860526], [84.17843271588293, 22.98022645878309], [84.39710657022096, 22.927985791866156], [84.23807103979331, 22.6915280363474], [84.01022205869984, 22.57329915858802], [84.01022205869984, 22.37121026288304], [83.62792511055643, 22.203490226991832], [83.5377030307946, 22.045393471848477], [83.59122460353467, 21.825432769040333], [83.38325506374466, 21.62059436455025], [83.39243019050011, 21.34289397725497], [83.26856597930164, 21.37726283706874], [83.19210658967296, 21.139430327157434], [82.64006979655389, 21.154552625475496], [82.4596256370302, 20.825986325655833], [82.33881980141689, 20.874102729395112], [82.3327030502466, 20.56203348228606], [82.43821700793417, 20.434181323778827], [82.39845812532727, 20.05612386582733], [82.71805837397514, 19.988760900592336], [82.69664974487911, 19.830664145448985], [82.59419416277669, 19.775673969746947], [82.44586294689704, 19.910399900216934], [82.34493655258719, 19.836163163019187], [82.2684771629585, 19.975013356666828], [81.94581853872548, 20.10561502395916], [81.87547590026709, 20.051999602649676], [81.8693591490968, 19.902151373861628], [82.06509518654622, 19.79079626806501], [82.02839467952444, 19.507596863199524], [82.18895939774467, 19.42786110843157], [82.2455393460699, 18.919201983187737]]]}}, {"type": "Feature", "properties": {"name": "Gujarat"}, "geometry": {"type": "MultiPolygon", "coordinates": [[[[70.82709409892277, 20.689885640793293], [70.09155477069487, 21.11468474809152], [68.9370179873018, 22.3107210696108], [69.00583143796761, 22.43994798251059], [69.16333778060269, 22.347839438209675], [69.17862965852842, 22.21311350773969], [70.12519690213149, 22.552677842699758], [70.71852176565005, 23.189189126450824], [70.31175781282548, 23.215309459909292], [70.08085045614685, 22.91973726551085], [69.64809031084852, 22.79600937018127], [69.13122483695865, 22.87437037055667], [68.63270961657965, 23.169942564955115], [68.31005099234662, 23.57824461954273], [68.14184033516352, 23.601615444216094], [68.20912459803677, 23.875191568333722], [68.33910556040551, 23.96592535824208], [68.75351545219296, 23.971424375812287], [68.76421976674098, 24.2958664124543], [69.00277306238246, 24.2230044296491], [69.59456873810845, 24.293116903669198], [69.73219563944008, 24.170763762732168], [70.02579969561421, 24.170763762732168], [70.10990502420576, 24.294491658061748], [70.57324892535556, 24.42234381656898], [70.57171973756299, 24.25187427189267], [70.80568546982674, 24.220254920863997], [71.04882632884595, 24.356355605726538], [71.10234790158603, 24.43609136049449], [70.99836313169102, 24.444339886849797], [70.98612962935043, 24.595562870030395], [71.11152302834147, 24.675298624798344], [71.28737962448743, 24.61618418591866], [72.05820464629488, 24.712428], [72.34732072069107, 24.628539637807783], [72.49989802475449, 24.416972575963342], [72.53893980501852, 24.51945160950249], [72.68331034800494, 24.463747084410425], [72.72787452509176, 24.367353640866945], [72.95834978197382, 24.3604927318788], [73.08723365634657, 24.49795530815928], [73.15145954363466, 24.354980851333988], [73.06735421504311, 24.194134587405532], [73.24321081118907, 24.001668972448407], [73.40530471720187, 24.041536849832383], [73.36860421018011, 23.814702375061483], [73.52305217723004, 23.6071144617863], [73.65609151518395, 23.620862005711807], [73.62703694712505, 23.449017706642945], [74.1393148576372, 23.266175372433676], [74.12708135529662, 23.175441582525316], [74.24788719090994, 23.183690108880622], [74.39316003120443, 22.896366440837486], [74.46044429407766, 22.907364475977893], [74.37939734107127, 22.63516310625281], [74.05826790463081, 22.549928333914657], [74.11943541633374, 22.419326666622325], [74.21577424726588, 22.44132273690314], [74.18977805479214, 22.32034435035866], [74.05368034125308, 22.298348280077846], [74.14696079660007, 21.950535418762467], [73.81665623340417, 21.840555067358395], [73.83500648691506, 21.520237293894034], [74.16378186231839, 21.568353697633317], [74.32128820495346, 21.49824122361322], [74.04603440229022, 21.446000556696287], [73.8151270456116, 21.17379918697121], [73.66679582973197, 21.154552625475496], [73.88852805965513, 20.9332171682748], [73.91758262771404, 20.724254500607067], [73.74478440715322, 20.564782991071162], [73.47411816786769, 20.720130237429416], [73.4160090317499, 20.204597340222826], [73.21109786754502, 20.120737322277222], [73.16675142156039, 20.28845735816843], [73.04288721036193, 20.325575726767305], [72.77527934666155, 20.13173535741763], [72.74010802743236, 20.24309046321425], [72.90373112123774, 20.57578102621157], [72.75081234198038, 21.062444081174586], [72.62083137961162, 21.09956244977346], [72.59789356272302, 21.316773643796502], [72.73552046405463, 21.474870398939856], [72.6101270650636, 21.580726487166274], [72.70034914482544, 21.645339943616168], [72.54284280219036, 21.733324224739427], [72.62236056740419, 21.808935716329724], [72.50920067075374, 21.94366164679971], [72.56730980687153, 22.181494156711018], [72.75234152977295, 22.173245630355712], [72.9465483794298, 22.29284926250764], [72.51531742192404, 22.32171910475121], [72.46026666139139, 22.25710564830132], [72.37616133279984, 22.314845332788455], [72.20489230003159, 21.891420979882778], [72.19418798548358, 21.749821277450035], [72.3088770699266, 21.6247186277279], [72.11314103247717, 21.198544766037124], [70.82709409892277, 20.689885640793293]]], [[[72.35628189149638, 21.797937681189318], [72.29205600420829, 21.967032471473075], [72.37463214500727, 22.028896419137865], [72.43732884450279, 21.9271645940891], [72.35628189149638, 21.797937681189318]]]]}}, {"type": "Feature", "properties": {"name": "Odisha"}, "geometry": {"type": "Polygon", "coordinates": [[[82.36175761830549, 18.421540893084313], [82.25012690944762, 17.992617522608434], [82.0314530551096, 18.069603768591282], [81.61704316332215, 17.82352273232467], [81.39684012119154, 17.818023714754467], [81.52987945914545, 18.240073313267594], [81.75008250127605, 18.354177927849317], [81.89994290494826, 18.66074815738817], [82.2455393460699, 18.919201983187737], [82.18895939774467, 19.42786110843157], [82.02839467952444, 19.507596863199524], [82.06509518654622, 19.79079626806501], [81.8693591490968, 19.902151373861628], [81.87547590026709, 20.051999602649676], [81.94581853872548, 20.10561502395916], [82.2684771629585, 19.975013356666828], [82.34493655258719, 19.836163163019187], [82.44586294689704, 19.910399900216934], [82.59419416277669, 19.775673969746947], [82.69664974487911, 19.830664145448985], [82.71805837397514, 19.988760900592336], [82.39845812532727, 20.05612386582733], [82.43821700793417, 20.434181323778827], [82.3327030502466, 20.56203348228606], [82.33881980141689, 20.874102729395112], [82.4596256370302, 20.825986325655833], [82.64006979655389, 21.154552625475496], [83.19210658967296, 21.139430327157434], [83.26856597930164, 21.37726283706874], [83.39243019050011, 21.34289397725497], [83.38325506374466, 21.62059436455025], [83.59122460353467, 21.825432769040333], [83.5377030307946, 22.045393471848477], [83.62792511055643, 22.203490226991832], [84.01022205869984, 22.37121026288304], [84.01175124649241, 22.527932263633843], [84.29159261253338, 22.342340420639474], [85.06994919895335, 22.490813895034968], [85.02866112855386, 22.12237971783133], [85.23815985613645, 22.009649857642156], [85.3971953865641, 22.163622349607856], [85.89723979473567, 21.983529524183687], [86.03180832048216, 22.18974268306632], [85.96299486981634, 22.485314877464766], [86.06697963971135, 22.556802105877413], [86.96461287395205, 22.085261349232454], [87.00131338097381, 21.913417050163595], [87.10071058749111, 21.86392589203176], [87.24292505220045, 21.964282962687975], [87.28268393480735, 21.80343669875952], [87.44171946523501, 21.767693084553198], [87.48453672342708, 21.61509534698005], [87.14811540906088, 21.50923925875363], [86.85909891626447, 21.213667064355185], [86.97684637629264, 20.860355185469604], [86.80557734352439, 20.735252535747474], [87.05636414150646, 20.714631219859207], [86.78875627780609, 20.534538394435042], [86.7765227754655, 20.33519900751516], [86.36975882264092, 19.98188712862958], [85.35284894057946, 19.588707372360027], [84.7656408282312, 19.07729873833109], [84.51485403024913, 19.049803650480072], [84.3191179927997, 18.7886003158954], [83.8909454108791, 18.81609540374642], [83.66309642978564, 19.099294808611905], [83.45971445337334, 18.956320351786612], [83.34808374451546, 19.018184299451402], [83.41230963180357, 18.873835088233555], [83.13552664134774, 18.7858508071103], [82.99942892780868, 18.608507490471233], [83.07741750522995, 18.40366908598115], [82.96884517195721, 18.361051699812073], [82.80675126594441, 18.451785489720432], [82.77310913450779, 18.34180513831636], [82.58654822381381, 18.27719168186647], [82.48562182950396, 18.52877173570328], [82.36175761830549, 18.421540893084313]]]}}, {"type": "Feature", "properties": {"name": "Andhra Pradesh"}, "geometry": {"type": "Polygon", "coordinates": [[[79.1626967562415, 13.020130884751834], [78.7513452400392, 13.054499744565607], [78.62136427767045, 12.991261042508267], [78.59230970961156, 12.78229837484053], [78.41186555008787, 12.626951128482279], [78.30176402902256, 12.665444251473703], [78.25283001966021, 12.860659375215931], [78.46691631062052, 12.974763989797655], [78.58619295844126, 13.275835201766302], [78.36446072851808, 13.362444728497008], [78.40116123553985, 13.587904448875356], [78.19625007133499, 13.568657887379644], [78.11520311832858, 13.862855327385535], [77.9699302780341, 13.959088134864098], [77.45612317972936, 13.682762501961367], [77.43318536284076, 13.843608765889822], [77.18086937706612, 13.869729099348291], [77.06465110483052, 13.743251695233607], [76.97748740065381, 13.827111713179212], [77.04171328794192, 13.932967801405631], [76.89491125985485, 14.168050802531834], [77.00348359312757, 14.198295399167954], [77.02795059780875, 14.062194714305416], [77.32155465398289, 14.030575363276744], [77.39801404361157, 13.906847467947163], [77.39342648023384, 14.17492457449459], [77.50352800129914, 14.157052767391427], [77.40871835815958, 14.337145592815595], [77.36437191217495, 14.275281645150805], [77.13805211887404, 14.337145592815595], [77.11664348977803, 14.225790487018973], [77.00501278092014, 14.235413767766829], [76.76493029748609, 14.602473190577918], [76.86738587958853, 14.969532613389008], [76.76034273410838, 14.988779174884721], [76.80010161671528, 15.09601001750369], [76.9851333396167, 15.014899508343188], [77.11358511419287, 15.0341460698389], [77.15640237238493, 15.14000215806532], [77.03253816118647, 15.435574352463762], [77.07229704379338, 15.909864617893822], [77.24815363993935, 15.964854793595858], [78.08309017468454, 15.841126898266277], [78.4103363622953, 16.07483514499993], [78.74064092549119, 16.008846934157486], [79.0296574182876, 16.241180426498588], [79.21468914118901, 16.226058128180526], [79.25750639938107, 16.5656224631406], [79.79272212678183, 16.725093972676504], [79.94869928162434, 16.635734937160695], [80.05574242710449, 16.744340534172217], [80.05574242710449, 16.971175008943113], [80.30652922508656, 16.973924517728214], [80.3218211030123, 16.879066464642207], [80.56954952540923, 16.76771135884558], [80.60166246905327, 16.918934342026184], [80.36310917341179, 16.97667402651332], [80.58025383995724, 17.152642588759832], [80.84480332807247, 17.03991272857066], [80.94114215900461, 17.218630799602277], [81.1735787034758, 17.231003589135234], [81.30967641701486, 17.409721660166852], [81.02065992421844, 17.51970201157092], [80.88609139847196, 17.735538451201414], [81.05888961903278, 17.732788942416313], [81.16593276451293, 17.857891592138444], [81.61704316332215, 17.82352273232467], [82.0314530551096, 18.069603768591282], [82.25012690944762, 17.992617522608434], [82.36175761830549, 18.421540893084313], [82.48562182950396, 18.52877173570328], [82.58654822381381, 18.27719168186647], [82.77310913450779, 18.34180513831636], [82.80675126594441, 18.451785489720432], [82.96884517195721, 18.361051699812073], [83.07741750522995, 18.40366908598115], [82.99942892780868, 18.608507490471233], [83.13552664134774, 18.7858508071103], [83.41230963180357, 18.873835088233555], [83.34808374451546, 19.018184299451402], [83.45971445337334, 18.956320351786612], [83.66309642978564, 19.099294808611905], [83.75637688513262, 18.91095345683243], [83.79307739215439, 19.018184299451402], [83.8909454108791, 18.81609540374642], [84.08973982391367, 18.75835571925928], [84.3191179927997, 18.7886003158954], [84.51485403024913, 19.049803650480072], [84.76411164043863, 19.074549229545987], [84.12796951872801, 18.31293529607279], [83.66309642978564, 18.07922704933914], [83.1615228338215, 17.559569888954897], [82.31894036011343, 17.05778453567382], [82.24859772165505, 16.935431394736792], [82.36175761830549, 16.85569563996884], [82.3143527967357, 16.558748691177847], [81.71491118204686, 16.311292900518684], [81.26532997103021, 16.278298795097463], [80.93808378341946, 15.716024248544146], [80.83104063793931, 15.70640096779629], [80.77446068961409, 15.867247231724743], [80.67965104647453, 15.885119038827906], [80.315704351842, 15.7228980205069], [80.04045054917876, 15.009400490772984], [80.19642770402126, 14.585976137867307], [80.1306726289406, 14.228539995804073], [80.26829953027223, 13.56453362420199], [80.21477795753215, 13.490296887004241], [80.03739217359362, 13.538413290743524], [79.79425131457441, 13.240091587559977], [79.40583761526071, 13.334949640645991], [79.43795055890476, 13.187850920643044], [79.22845183132218, 13.157606324006924], [79.1626967562415, 13.020130884751834]], [[82.19966371229269, 16.720969709498853], [82.27000635075107, 16.722344463891403], [82.18590102215953, 16.737466762209465], [82.19966371229269, 16.720969709498853]]]}}, {"type": "Feature", "properties": {"name": "Karnataka"}, "geometry": {"type": "Polygon", "coordinates": [[[75.93611051391119, 11.94094868659938], [75.4146574766436, 12.290136302307308], [75.41618666443617, 12.499098969975044], [74.82286180091761, 12.846911831290422], [74.58277931748356, 13.926094029442876], [74.26317906883567, 14.719327313944746], [74.08579328489714, 14.900794893761462], [74.29682120027229, 15.041019841801655], [74.26012069325053, 15.241733983114086], [74.32587576833119, 15.282976614890613], [74.23718287636191, 15.667907844804864], [74.11790622854117, 15.651410792094254], [74.1224937919189, 15.720148511721797], [74.34575520963465, 15.764140652283427], [74.46350266966282, 16.039091530793606], [74.3717514021084, 16.07895940817758], [74.48032373538112, 16.249428952853894], [74.31670064157575, 16.32641519883674], [74.31517145378317, 16.554624428000192], [74.63018413905334, 16.58349427024376], [74.695939214134, 16.715470691928648], [74.91920063184975, 16.773210376415786], [74.90237956613144, 16.862569411931595], [75.08894047682541, 16.9519284474474], [75.18222093217241, 16.843322850435882], [75.28008895089712, 16.956052710625055], [75.66544427462567, 16.97942353529842], [75.57369300707126, 17.383601326708384], [75.63333133098162, 17.477084625401844], [75.93152295053348, 17.323112133436144], [76.38263334934268, 17.314863607080838], [76.33217015218776, 17.596688257553772], [76.52331862625945, 17.76028403026733], [76.68541253227227, 17.681923029891927], [76.79092648995984, 17.826272241109773], [76.74046329280492, 17.89913422391497], [76.91937826453602, 17.915631276625582], [76.95149120818007, 18.18783264635066], [77.06465110483052, 18.150714277751785], [77.31696709060516, 18.442162208972576], [77.4652983064848, 18.262069383548408], [77.60139602002386, 18.27581692747392], [77.54787444728377, 18.055856224665774], [77.65644678055651, 17.969246697935066], [77.44388967738877, 17.584315468020815], [77.6855013486154, 17.51145348521562], [77.37966379010068, 17.22275506277993], [77.49741125012885, 17.042662237355763], [77.45306480414422, 16.616488375664986], [77.41636429712244, 16.51750605940132], [77.24203688876905, 16.47351391883969], [77.59375008106099, 16.342912251547354], [77.50046962571399, 16.221933865002875], [77.51423231584715, 15.927736424996983], [77.24815363993935, 15.964854793595858], [77.02642141001618, 15.837002635088623], [77.03253816118647, 15.435574352463762], [77.15640237238493, 15.14000215806532], [77.11358511419287, 15.0341460698389], [76.9851333396167, 15.014899508343188], [76.80010161671528, 15.09601001750369], [76.76034273410838, 14.988779174884721], [76.86738587958853, 14.969532613389008], [76.76493029748609, 14.602473190577918], [77.00501278092014, 14.235413767766829], [77.11664348977803, 14.225790487018973], [77.13805211887404, 14.337145592815595], [77.47906099661796, 14.291778697861416], [77.39801404361157, 13.906847467947163], [77.32155465398289, 14.030575363276744], [77.02795059780875, 14.062194714305416], [77.00348359312757, 14.198295399167954], [76.89491125985485, 14.168050802531834], [77.06465110483052, 13.743251695233607], [77.18086937706612, 13.869729099348291], [77.43318536284076, 13.843608765889822], [77.45612317972936, 13.682762501961367], [77.9699302780341, 13.959088134864098], [78.11520311832858, 13.862855327385535], [78.19625007133499, 13.568657887379644], [78.40116123553985, 13.587904448875356], [78.36446072851808, 13.362444728497008], [78.58619295844126, 13.275835201766302], [78.46691631062052, 12.974763989797655], [78.23142139056418, 12.760302304559715], [77.92864220763461, 12.890903971852051], [77.73902292135548, 12.672318023436457], [77.60139602002386, 12.668193760258806], [77.61515871015702, 12.367122548290158], [77.4714150576551, 12.243394652960578], [77.77572342837725, 12.112792985668243], [77.67632622185997, 11.951946721739787], [77.4943528745437, 11.943698195384481], [77.42859779946303, 11.767729633137968], [77.01265871988302, 11.814471282484696], [76.90867394998801, 11.795224720988985], [76.84750643828507, 11.594510579676554], [76.56001913328123, 11.62200566752757], [76.11349629784974, 11.858463423046327], [76.11349629784974, 11.979441809590806], [75.93611051391119, 11.94094868659938]]]}}, {"type": "Feature", "properties": {"name": "Goa"}, "geometry": {"type": "Polygon", "coordinates": [[[74.23718287636191, 15.667907844804864], [74.29682120027229, 15.041019841801655], [74.08579328489714, 14.900794893761462], [73.88394049627742, 15.35446384330326], [73.93440369343234, 15.432824843678661], [73.76619303624925, 15.494688791343451], [73.68514608324284, 15.728397038077103], [73.93899125681007, 15.742144582002613], [73.99098364175757, 15.611542914710277], [74.23718287636191, 15.667907844804864]]]}}, {"type": "Feature", "properties": {"name": "Kerala"}, "geometry": {"type": "Polygon", "coordinates": [[[76.89949882323256, 10.252750292546878], [77.18086937706612, 10.357231626380745], [77.28791252254626, 10.232128976658615], [77.16710668693295, 9.61211474561816], [77.40260160698928, 9.525505218887453], [77.14875643342207, 9.009972321680866], [77.25579957890221, 8.87937065438853], [77.1701650625181, 8.741895215133441], [77.26956226903538, 8.578299442419883], [77.09829323626714, 8.292350528769298], [76.54778563094064, 8.902741479061897], [76.31993664984716, 9.482887832718376], [76.21442269215959, 10.193635853667189], [75.69755721826971, 11.425415789392794], [75.5538135657678, 11.701741422295523], [75.20057118568329, 12.006936897441824], [74.86873743469482, 12.758927550167165], [75.41618666443617, 12.499098969975044], [75.4146574766436, 12.290136302307308], [75.87035543883053, 11.951946721739787], [76.11349629784974, 11.979441809590806], [76.11349629784974, 11.858463423046327], [76.41321710519416, 11.758106352390111], [76.37804578596497, 11.601384351639307], [76.23430213346305, 11.52714761444156], [76.54778563094064, 11.35942757855035], [76.44227167325306, 11.201330823406998], [76.7068211613683, 11.239823946398422], [76.75422598293808, 11.078977682469967], [76.65635796421337, 10.938752734429777], [76.90714476219543, 10.782030733678972], [76.81539349464101, 10.42321983722319], [76.89949882323256, 10.252750292546878]], [[75.5415800634272, 11.738859790894399], [75.53699250004948, 11.719613229398686], [75.55534275356037, 11.722362738183786], [75.5415800634272, 11.738859790894399]]]}}, {"type": "Feature", "properties": {"name": "Telangana"}, "geometry": {"type": "Polygon", "coordinates": [[[77.59375008106099, 16.342912251547354], [77.24203688876905, 16.47351391883969], [77.41636429712244, 16.51750605940132], [77.47600262103282, 16.788332674733844], [77.49741125012885, 17.042662237355763], [77.37966379010068, 17.22275506277993], [77.6855013486154, 17.51145348521562], [77.44388967738877, 17.584315468020815], [77.65644678055651, 17.969246697935066], [77.54787444728377, 18.055856224665774], [77.60139602002386, 18.27581692747392], [77.52493663039517, 18.37204973495248], [77.59680845664613, 18.549393051591544], [77.73902292135548, 18.5562668235543], [77.72984779460003, 18.66624717495837], [77.94852164893805, 18.84359049159744], [77.79713205747328, 19.073174475153436], [77.86288713255394, 19.304133213101988], [78.17484144223896, 19.238145002259543], [78.30940996798543, 19.48147652974105], [78.30635159240029, 19.911774654609488], [78.43174499139133, 19.814167092738373], [78.84156731980104, 19.761926425821436], [78.95625640424407, 19.65607033759502], [78.93637696294061, 19.5502142493686], [79.19022213650783, 19.459480459460238], [79.25291883600335, 19.592831635537678], [79.47159269034137, 19.500723091236765], [79.74378811741948, 19.60932868824829], [79.94411171824662, 19.47047849460065], [79.8584772018625, 19.102044317397006], [79.9395241548689, 19.03468135216201], [79.91352796239515, 18.825718684494277], [80.63683378828246, 18.52327271813308], [80.7561104361032, 18.169960839247498], [80.97937185381895, 18.165836576069843], [81.01607236084072, 17.794652890081103], [81.08488581150652, 17.797402398866204], [80.88609139847196, 17.735538451201414], [80.91055840315315, 17.6379308893303], [81.30967641701486, 17.409721660166852], [81.1735787034758, 17.231003589135234], [80.94114215900461, 17.218630799602277], [80.84480332807247, 17.03991272857066], [80.58025383995724, 17.152642588759832], [80.36310917341179, 16.97667402651332], [80.60166246905327, 16.918934342026184], [80.56954952540923, 16.76771135884558], [80.3218211030123, 16.879066464642207], [80.30652922508656, 16.973924517728214], [80.05574242710449, 16.971175008943113], [80.05574242710449, 16.744340534172217], [79.94869928162434, 16.635734937160695], [79.79272212678183, 16.725093972676504], [79.25750639938107, 16.5656224631406], [79.21468914118901, 16.226058128180526], [79.0296574182876, 16.241180426498588], [78.74064092549119, 16.008846934157486], [78.4103363622953, 16.07483514499993], [78.17484144223896, 15.857623950976889], [77.51423231584715, 15.927736424996983], [77.50046962571399, 16.221933865002875], [77.59375008106099, 16.342912251547354]]]}}, {"type": "Feature", "properties": {"name": "West Bengal"}, "geometry": {"type": "MultiPolygon", "coordinates": [[[[88.12526640851542, 21.674209785859738], [88.03198595316843, 21.687957329785245], [88.10385777941939, 21.841929821750945], [88.1665544789149, 21.822683260255232], [88.12526640851542, 21.674209785859738]]], [[[88.18643392021836, 22.104507910728167], [87.78884509414922, 21.698955364925652], [87.48453672342708, 21.61509534698005], [87.24292505220045, 21.964282962687975], [87.10071058749111, 21.86392589203176], [87.00131338097381, 21.913417050163595], [87.02883876124014, 22.038519699885725], [86.72758876610314, 22.21586301652479], [86.84533622613131, 22.400080105126612], [86.7642892731249, 22.426200438585077], [86.76581846091747, 22.576048667373126], [86.41869283200327, 22.790510352611065], [86.50126897280225, 22.993974002708597], [86.24130704806473, 22.9967235114937], [85.81925121731442, 23.268924881218776], [85.88500629239508, 23.48338656645672], [86.08227151763708, 23.565871830009772], [86.31012049873054, 23.411899338044073], [86.48597709487652, 23.63598430402987], [86.80098978014666, 23.69922300608721], [86.80098978014666, 23.833948936557196], [87.23374992544501, 23.85594500683801], [87.29491743714794, 23.90131190179219], [87.23374992544501, 24.02503979712177], [87.44019027744244, 23.982422410952694], [87.80107859648982, 24.382475939185007], [87.79343265752695, 24.583190080497435], [87.88977148845908, 24.565318273394276], [87.90812174196996, 24.722040274145076], [87.83930829130415, 24.74541109881844], [87.96011412691746, 24.921379661064957], [87.71085651672797, 25.258194487239926], [87.81789966220812, 25.241697434529318], [87.7674364650532, 25.41629124238328], [87.86683367157048, 25.497401751543784], [88.06715727239762, 25.483654207618272], [88.0503362066793, 25.700865401641316], [87.82248722558585, 25.93594840276752], [87.85001260585217, 26.039054982208835], [88.27971437556535, 26.330502913429626], [88.10997453058968, 26.54771410745267], [88.18643392021836, 26.771799073438466], [87.99222707056151, 27.108613899613434], [88.03810270433873, 27.219969005410057], [88.15432097657431, 27.109988654005985], [88.42498721585984, 27.071495531014563], [88.59778543642066, 27.188349654381387], [88.86539330012104, 27.108613899613434], [88.86845167570618, 26.96563944278814], [89.12841360044371, 26.806167933252237], [89.54741105560888, 26.813041705214992], [89.85171942633102, 26.69756233624072], [89.8700696798419, 26.61370231829511], [89.72938440292513, 26.17103140389372], [89.63457475978556, 26.22877108838086], [89.6498666377113, 26.063800561274753], [89.54129430443858, 26.006060876787615], [89.15440979291745, 26.13941205286505], [89.09630065679966, 26.390992106701866], [88.98314076014921, 26.447357036796454], [88.92656081182399, 26.283761264082898], [88.75987934243346, 26.329128159037076], [88.40052021117867, 26.64394691493123], [88.33323594830543, 26.496848194928287], [88.51520929562169, 26.3648717732434], [88.1787879812555, 26.149035333612908], [88.09315346487136, 25.930449385197317], [88.1436166620263, 25.794348700334776], [88.64671944578302, 25.47815519004807], [88.81187172738098, 25.52352208500225], [88.83939710764729, 25.364050575466347], [88.98772832352694, 25.273316785557988], [88.90973974610569, 25.179833486864524], [88.43569153040787, 25.200454802752787], [88.39440346000838, 24.96949606480424], [88.14055828644115, 24.9145058891022], [88.0273983897907, 24.690420923116406], [88.13291234747828, 24.510328097692238], [88.74152908892258, 24.254623780677772], [88.73235396216714, 23.910935182540047], [88.6069605631761, 23.861444024408215], [88.56414330498404, 23.712970550012717], [88.7629377180186, 23.446268197857844], [88.70941614527854, 23.231806512619904], [88.94185268974972, 23.205686179161436], [88.85774736115818, 22.967853669250132], [88.96937807001605, 22.84412577392055], [88.91279812169083, 22.757516247189844], [89.06877527653333, 21.949160664369916], [88.85315979778045, 21.923040330911448], [88.7629377180186, 22.01514887521236], [88.53203036133999, 21.852927856891355], [88.39134508442322, 21.896919997452983], [88.2598349342619, 21.55598090810036], [88.14514584981887, 21.95465968194012], [88.2185468638624, 22.103133156335616], [88.08244915032336, 22.26122991147897], [87.99834382173181, 22.24473285876836], [88.18643392021836, 22.104507910728167]]], [[[89.03819152068186, 21.610971083802397], [89.01525370379326, 21.778691119693605], [89.09324228121451, 21.652213715578924], [89.03819152068186, 21.610971083802397]]], [[[88.71553289644882, 21.905168523808285], [88.80881335179582, 21.668710768289532], [88.7461166523003, 21.661836996326777], [88.71553289644882, 21.905168523808285]]], [[[88.94796944092002, 21.769067838945748], [88.82104685413641, 21.9271645940891], [88.88221436583936, 21.913417050163595], [88.9433818775423, 21.914791804556145], [88.94796944092002, 21.769067838945748]]]]}}, {"type": "Feature", "properties": {"name": "Dadra and Nagar Haveli and Daman and Diu"}, "geometry": {"type": "MultiPolygon", "coordinates": [[[[72.93278568929664, 20.295331130131185], [73.16675142156039, 20.28845735816843], [73.21109786754502, 20.120737322277222], [72.96489863294067, 20.127611094239974], [72.93278568929664, 20.295331130131185]]], [[[72.88691005551942, 20.461676411629846], [72.82880091940163, 20.368193112936382], [72.8364468583645, 20.45342788527454], [72.88691005551942, 20.461676411629846]]], [[[70.92037455426977, 20.74212630771023], [70.99989231948359, 20.74212630771023], [70.97695450259499, 20.702258430326253], [70.92037455426977, 20.74212630771023]]]]}}, {"type": "Feature", "properties": {"name": "Puducherry"}, "geometry": {"type": "MultiPolygon", "coordinates": [[[[79.84930207510706, 10.827397628633154], [79.72390867611603, 10.92912945368192], [79.7483756807972, 10.996492418916914], [79.85083126289963, 10.985494383776505], [79.84930207510706, 10.827397628633154]]], [[[75.55534275356037, 11.722362738183786], [75.53699250004948, 11.719613229398686], [75.5415800634272, 11.738859790894399], [75.55534275356037, 11.722362738183786]]], [[[79.80801400470757, 11.844715879120816], [79.68567898130168, 11.880459493327141], [79.84012694835161, 11.956070984917439], [79.80801400470757, 11.844715879120816]]], [[[82.26694797516593, 16.694849376040384], [82.19966371229269, 16.720969709498853], [82.18590102215953, 16.737466762209465], [82.27000635075107, 16.722344463891403], [82.26694797516593, 16.694849376040384]]]]}}, {"type": "Feature", "properties": {"name": "Lakshadweep"}, "geometry": {"type": "Polygon", "coordinates": [[[73.04288721036193, 8.263480686525728], [73.01842020568075, 8.275853476058687], [73.05359152490995, 8.273103967273585], [73.04288721036193, 8.263480686525728]]]}}, {"type": "Feature", "properties": {"name": "Arunachal Pradesh"}, "geometry": {"type": "Polygon", "coordinates": [[[92.67307090362932, 27.031627653630586], [92.11338817154738, 26.892777459982945], [92.0139909650301, 27.489420866350034], [91.6546318337753, 27.48254709438728], [91.55982219063574, 27.633770077567878], [91.63016482909413, 27.80149011345909], [91.82590086654355, 27.809738639814395], [91.8809516270762, 27.721754358691136], [92.25713182404931, 27.861979306731328], [92.3091242089968, 27.779494043178275], [92.56144019477145, 27.8207366749548], [92.73423841533227, 27.97608392131305], [92.68836278155506, 28.1259321501011], [93.22357850895582, 28.34176858973159], [93.18229043855634, 28.43250237963995], [93.33979678119141, 28.640090292915136], [93.96217621276887, 28.712952275720333], [94.29095158817219, 29.147374663766417], [94.6793652874859, 29.327467489190585], [94.87357213714274, 29.18311827797274], [95.45466349832071, 29.034644803577244], [95.53876882691226, 29.211988120216308], [96.08927643223876, 29.45944391087547], [96.2437243992887, 29.23260943610457], [96.3935848029609, 29.253230751992835], [96.15044394394171, 29.049767101895302], [96.24831196266642, 28.93978675049123], [96.43640206115298, 29.034644803577244], [96.60767109392121, 28.794062784880836], [96.32630054008767, 28.51086338001535], [96.31406703774708, 28.383011221508117], [96.66272185445386, 28.459997467490968], [97.37073580241545, 28.21804069440201], [97.37532336579316, 27.908720956078056], [96.86151626748844, 27.631020568782777], [97.16429545041801, 27.141608005034655], [97.06336905610814, 27.092116846902826], [96.85998707969586, 27.189724408773937], [96.79729038020034, 27.34644640952474], [96.60614190612864, 27.365692971020454], [96.08927643223876, 27.222718514195158], [95.7452091789097, 26.895526968768046], [95.4959515687202, 26.817165968392644], [95.42713811805439, 26.69756233624072], [95.23446045619012, 26.682440037922657], [95.19623076137577, 27.034377162415687], [95.44854674715042, 27.131984724286802], [95.53418126353455, 27.263961145971688], [95.85683988776758, 27.27083491793444], [96.01587541819524, 27.368442479805555], [95.7803804981389, 27.62139728803492], [95.96999978441802, 27.95958686860244], [95.81861019295323, 27.9719596581354], [94.46222062094044, 27.555409077192476], [94.23743001543212, 27.632395323175327], [94.26648458349102, 27.519665462986154], [93.6655137810096, 26.968388951573242], [93.02172572033611, 26.913398775871208], [92.67307090362932, 27.031627653630586]]]}}, {"type": "Feature", "properties": {"name": "Assam"}, "geometry": {"type": "Polygon", "coordinates": [[[92.53238562671255, 24.17763753469492], [92.21890212923496, 24.286243131706442], [92.29536151886364, 24.737162572463138], [92.2341940071607, 24.899383590784144], [92.51556456099425, 24.88013702928843], [92.4253424812324, 25.02998525807648], [92.79234755145006, 25.282940066305844], [92.56908613373432, 25.465782400515113], [92.66083740128873, 25.57163848874153], [92.58437801166005, 25.551017172853268], [92.44369273474328, 25.72011196313703], [92.15161786636173, 25.671995559397747], [92.16385136870231, 25.970317262581293], [92.27395288976761, 26.065175315667304], [91.86718893694304, 26.04180449099394], [91.82590086654355, 26.118790736976788], [91.72191609664854, 25.96619299940364], [91.5797016319392, 26.033555964638634], [91.22187168847697, 25.72286147192213], [90.9481470736063, 25.948321192300476], [90.12238566561655, 25.959319227440886], [89.8991242479008, 25.726985735099785], [90.01993008351411, 25.607382102947856], [89.85171942633102, 25.465782400515113], [89.88689074556021, 25.945571683515375], [89.70032983486624, 26.217773053240453], [89.84254429957558, 26.38274358034656], [89.85936536529388, 26.73468070483959], [90.1942574918675, 26.773173827831016], [90.41751890958325, 26.905150249515902], [90.71723971692768, 26.769049564653365], [91.33656077292, 26.78004759979377], [91.89318512941679, 26.91889779344141], [92.05680822322216, 26.846035810636213], [92.67307090362932, 27.031627653630586], [93.02172572033611, 26.913398775871208], [93.6655137810096, 26.968388951573242], [94.26648458349102, 27.519665462986154], [94.23743001543212, 27.632395323175327], [94.46222062094044, 27.555409077192476], [95.6060530897855, 27.95546260542479], [95.96999978441802, 27.95958686860244], [95.7803804981389, 27.62139728803492], [96.01587541819524, 27.368442479805555], [95.48371806637961, 27.24196507569087], [95.44854674715042, 27.131984724286802], [94.92403533429767, 26.94914239007753], [94.73594523581112, 26.749803003157652], [94.40258229703008, 26.61095280951001], [94.3138894050608, 26.461104580721962], [94.28483483700191, 26.561461651378178], [94.00040590758321, 26.172406158286275], [93.97899727848718, 25.916701841271806], [93.77714448986747, 25.849338876036814], [93.7756153020749, 25.96894250818874], [93.3290924666434, 25.54276864649796], [93.46977774356017, 25.30631089097921], [93.17464449959347, 24.797651765735377], [93.1088894245128, 24.811399309660885], [93.00949221799551, 24.412720535821126], [92.79999349041293, 24.41959430778388], [92.7617637955986, 24.51307760647734], [92.53238562671255, 24.17763753469492]]]}}, {"type": "Feature", "properties": {"name": "Nagaland"}, "geometry": {"type": "Polygon", "coordinates": [[[93.3290924666434, 25.54276864649796], [93.7756153020749, 25.96894250818874], [93.77714448986747, 25.849338876036814], [93.97899727848718, 25.916701841271806], [94.00040590758321, 26.172406158286275], [94.28483483700191, 26.561461651378178], [94.3138894050608, 26.461104580721962], [94.40258229703008, 26.61095280951001], [95.19623076137577, 27.034377162415687], [95.23446045619012, 26.682440037922657], [95.0616622356293, 26.450106545581555], [95.18552644682777, 26.07342384202261], [94.80781706206207, 25.49327748836613], [94.67477772410817, 25.44516108462685], [94.4882168134142, 25.60463259416275], [94.32153534402367, 25.502900769113985], [93.76491098752687, 25.53864438332031], [93.8046698701338, 25.46303289173001], [93.60587545709922, 25.199080048360237], [93.3290924666434, 25.54276864649796]]]}}, {"type": "Feature", "properties": {"name": "Meghalaya"}, "geometry": {"type": "Polygon", "coordinates": [[[91.25245544432845, 25.197705293967687], [90.44504428984958, 25.144089872658203], [89.83489836061271, 25.296687610231352], [89.87771561880477, 25.549642418460717], [90.01993008351411, 25.607382102947856], [89.8991242479008, 25.726985735099785], [90.12238566561655, 25.959319227440886], [90.9481470736063, 25.948321192300476], [91.22187168847697, 25.72286147192213], [91.5797016319392, 26.033555964638634], [91.72191609664854, 25.96619299940364], [91.82590086654355, 26.118790736976788], [91.86718893694304, 26.04180449099394], [92.27395288976761, 26.065175315667304], [92.16385136870231, 25.970317262581293], [92.15161786636173, 25.671995559397747], [92.44369273474328, 25.72011196313703], [92.58437801166005, 25.551017172853268], [92.66083740128873, 25.57163848874153], [92.56908613373432, 25.465782400515113], [92.79234755145006, 25.282940066305844], [92.4253424812324, 25.02998525807648], [92.08127522790333, 25.18395775004218], [91.64239833143472, 25.12484331116249], [91.25245544432845, 25.197705293967687]]]}}, {"type": "Feature", "properties": {"name": "Manipur"}, "geometry": {"type": "Polygon", "coordinates": [[[93.50494906278936, 23.942554533568718], [93.37802647600576, 24.08827849917911], [93.25263307701472, 24.02091553394412], [92.97585008655889, 24.11577358703013], [93.1088894245128, 24.811399309660885], [93.17464449959347, 24.797651765735377], [93.38108485159091, 25.240322680136764], [93.46977774356017, 25.30631089097921], [93.60587545709922, 25.199080048360237], [93.8046698701338, 25.46303289173001], [93.76491098752687, 25.53864438332031], [94.20837544737323, 25.496026997151233], [94.55091351290972, 25.579887015096837], [94.67477772410817, 25.44516108462685], [94.57538051759089, 25.2142023466783], [94.743591174774, 25.03685903003923], [94.62890209033097, 24.75640913395885], [94.37505691676375, 24.49383104498163], [94.15638306242572, 23.847696480482707], [93.7404439828457, 24.005793235626058], [93.50494906278936, 23.942554533568718]]]}}, {"type": "Feature", "properties": {"name": "Tripura"}, "geometry": {"type": "Polygon", "coordinates": [[[91.80449223744752, 23.51500591748539], [91.80602142524009, 23.062711722336143], [91.57664325635405, 22.965104160465028], [91.45430823294816, 23.260676354863474], [91.31973970720168, 23.277173407574082], [91.1561166133963, 23.741840392256286], [91.22645925185469, 23.73221711150843], [91.29986026589822, 23.997544709270752], [91.63016482909413, 24.103400797497173], [91.65616102156787, 24.185886061050226], [91.75555822808516, 24.1418939204886], [91.74638310132971, 24.245000499929915], [91.92376888526826, 24.108899815067375], [91.92223969747567, 24.338483798623376], [92.21431456585725, 24.508953343299687], [92.21890212923496, 24.286243131706442], [92.33053283809284, 24.183136552265125], [92.26477776301218, 23.726718093938228], [92.11950492271768, 23.73221711150843], [92.0598665988073, 23.64285807599262], [91.93753157540142, 23.689599725339352], [91.97423208242319, 23.480637057671615], [91.80449223744752, 23.51500591748539]]]}}, {"type": "Feature", "properties": {"name": "Andaman and Nicobar Islands"}, "geometry": {"type": "MultiPolygon", "coordinates": [[[[92.72047572519911, 9.218934989348602], [92.82598968288669, 9.140573988973202], [92.72812166416197, 9.126826445047692], [92.72047572519911, 9.218934989348602]]], [[[92.43298842019527, 10.551071995730423], [92.37793765966262, 10.782030733678972], [92.52015212437196, 10.89751010265325], [92.59661151400064, 10.681673663022757], [92.53085643891998, 10.520827399094303], [92.43298842019527, 10.551071995730423]]], [[[92.6394287721927, 11.510650561730948], [92.68989196934763, 11.37454987686841], [92.59814070179321, 11.347054789017392], [92.58590719945263, 11.400670210326878], [92.6394287721927, 11.510650561730948]]], [[[92.70671303506595, 11.973942792020601], [92.7908183636575, 11.885958510897344], [92.66542496466646, 11.505151544160746], [92.5354440022977, 11.912078844355811], [92.60119907737837, 11.84884014229847], [92.66083740128873, 12.214524810717009], [92.78164323690206, 12.04817952921835], [92.70671303506595, 11.973942792020601]]], [[[93.80008230675607, 6.766373153037801], [93.64563433970613, 7.126558803886136], [93.83678281377783, 7.240663418467861], [93.9147713911991, 6.94921548724707], [93.80008230675607, 6.766373153037801]]], [[[93.6364592129507, 7.244787681645513], [93.70068510023879, 7.445501822957945], [93.71291860257938, 7.312150646880507], [93.6364592129507, 7.244787681645513]]], [[[92.74035516650257, 12.24614416174568], [92.83210643405698, 12.301134337447715], [92.8718653166639, 12.302509091840266], [92.85504425094558, 12.159534635014973], [92.74035516650257, 12.24614416174568]]], [[[92.71894653740654, 12.299759583055163], [92.84128156081242, 13.391314570740576], [92.98808358889949, 13.574156904949847], [93.0339592226767, 13.081994832416626], [92.9116241992708, 13.054499744565607], [92.85810262653072, 12.901902006992458], [92.97432089876632, 12.543091110536674], [92.87339450445647, 12.331378934083835], [92.71894653740654, 12.299759583055163]]]]}}, {"type": "Feature", "properties": {"name": "Uttar Pradesh"}, "geometry": {"type": "Polygon", "coordinates": [[[78.7513452400392, 24.599687133208047], [78.88285539020053, 24.640929764984573], [78.99142772347327, 24.416844798998778], [78.80639600057185, 24.17901228908747], [78.50208762984971, 24.39072446554031], [78.38892773319927, 24.262872307033078], [78.1717830666538, 24.876012766110776], [78.44703686931706, 25.12209380237739], [78.33999372383691, 25.43278829509389], [78.45162443269479, 25.57163848874153], [78.81098356394958, 25.619754892480813], [78.76357874237979, 25.72011196313703], [79.13822975156033, 26.338751439784932], [79.006719601399, 26.67144200278225], [78.35834397734779, 26.86940663530958], [78.22224626380874, 26.832288266710705], [78.2711802731711, 26.920272547833964], [78.1488452497652, 26.94914239007753], [77.76043155045151, 26.93264533736692], [77.45459399193679, 26.742929231194896], [77.39801404361157, 26.830913512318155], [77.66103434393422, 26.971138460358347], [77.55093282286893, 27.111363408398535], [77.65797596834908, 27.170477847278224], [77.33990490749376, 27.52653923494891], [77.28332495916854, 27.798740604673984], [77.5295241937729, 27.92659276318122], [77.50505718909172, 28.37063843197516], [77.20839475733244, 28.791313276095735], [77.10593917523, 29.632662964336884], [77.5753998275501, 30.401150669772836], [77.95922596348608, 30.24167916023693], [77.71608510446687, 29.88561777256625], [77.82006987436188, 29.67390559611341], [77.92711301984204, 29.713773473497387], [78.02039347518902, 29.5817970518125], [78.33540616045919, 29.79763349144299], [78.92567264839259, 29.438822594987208], [78.76052036679465, 29.26422878713324], [78.92720183618518, 29.118504821522848], [79.0357741694579, 29.16937073404723], [79.42265868097903, 28.897169364322153], [79.82024750704815, 28.887546083574296], [79.95481603279464, 28.72257555646819], [80.11996831439258, 28.827056890302057], [80.31417516404943, 28.62909225777473], [80.66741754413394, 28.642839801700237], [81.88465102702253, 27.856480289161123], [82.06968274992393, 27.923843254396118], [82.44892132248219, 27.67913697252206], [82.70582487163455, 27.703882551587974], [82.7318210641083, 27.486671357564934], [83.18904821408782, 27.45367725214371], [83.29150379619024, 27.335448374384335], [83.39548856608525, 27.479797585602178], [83.83130708696874, 27.369817234198106], [83.99340099298153, 27.17460211045588], [84.06068525585476, 26.88727844241274], [84.418515199317, 26.631574125398274], [84.11267764080227, 26.630199371005723], [83.9077664765974, 26.447357036796454], [84.1570240867869, 26.375869808383808], [84.05609769247705, 26.099544175481075], [84.62495555131443, 25.791599191549675], [84.60048854663326, 25.732484752669986], [84.33593905851802, 25.743482787810393], [84.3191179927997, 25.667871296220095], [84.1402030210686, 25.731109998277436], [83.84659896489447, 25.434163049486443], [83.34961293230805, 25.18395775004218], [83.39548856608525, 24.781154713024765], [83.52394034066143, 24.550195975076214], [83.40007612946297, 24.49795530815928], [83.32973349100459, 24.102026043104622], [83.09118019536311, 23.87106730515607], [82.94743654286118, 23.87106730515607], [82.66453680123507, 24.128146376563087], [82.7440545664489, 24.165264745161963], [82.77310913450779, 24.642304519377124], [82.67065355240535, 24.69729469507916], [82.2975317310174, 24.606560905170802], [82.216484778011, 24.793527502557723], [81.94276016314032, 24.845768169474656], [81.8922969659854, 24.98874262629995], [81.54058377369347, 25.18808201321983], [81.2775634733708, 25.166085942939016], [81.12005713073572, 24.903507853961795], [80.8600952059982, 24.928253433027713], [80.84480332807247, 25.18670725882728], [80.4777982578548, 24.97636983676699], [80.40133886822613, 25.069853135460455], [80.2637119668945, 25.024486240506274], [80.43039343628503, 25.174334469294323], [80.315704351842, 25.388796154532262], [80.03280461021589, 25.34205450518553], [79.84012694835161, 25.09872297770402], [79.56946070906608, 25.17158496050922], [79.40583761526071, 25.106971504059327], [79.43642137111217, 25.254070224062275], [79.28044421626967, 25.32418269808237], [79.32326147446173, 25.149588890228404], [79.13058381259746, 25.109721012844428], [79.06329954972422, 25.222450873033605], [78.87979701461539, 25.15783741658371], [78.96084396762178, 25.344804013970634], [78.8843845779931, 25.515273558646946], [78.73146579873575, 25.457533874159807], [78.77428305692781, 25.35305254032594], [78.65959397248479, 25.38329713696206], [78.51279194439772, 25.27606629434309], [78.63206859221846, 24.95712327527128], [78.76969549355009, 24.859515713400167], [78.7513452400392, 24.599687133208047]]]}}, {"type": "Feature", "properties": {"name": "Rajasthan"}, "geometry": {"type": "Polygon", "coordinates": [[[74.73416890894833, 23.220808477479498], [74.31975901716089, 23.059962213551042], [73.95887069811351, 23.3802799870154], [73.62703694712505, 23.449017706642945], [73.65609151518395, 23.620862005711807], [73.52305217723004, 23.6071144617863], [73.36860421018011, 23.814702375061483], [73.40530471720187, 24.041536849832383], [73.24321081118907, 24.001668972448407], [73.06735421504311, 24.194134587405532], [73.15145954363466, 24.354980851333988], [73.08723365634657, 24.49795530815928], [72.95878188177038, 24.36047986890419], [72.72787452509176, 24.367353640866945], [72.68352807910713, 24.46358644834551], [72.51990498530176, 24.50070481694438], [72.5000255439983, 24.416844798998778], [72.33487326240035, 24.632681238629267], [72.05809027194452, 24.71241699339722], [71.28737962448743, 24.61618418591866], [71.11152302834147, 24.675298624798344], [70.66500019290997, 25.397044680887568], [70.67417531966541, 25.676119822575398], [70.2689405546334, 25.713238191174273], [70.09920070965774, 25.93869791155262], [70.17413091149385, 26.55183837063032], [69.79183396335044, 26.598580019977053], [69.48446721704315, 26.804793178859686], [69.58692279914558, 27.184225391203736], [70.37139613673584, 28.011827535519377], [70.58854080328129, 28.010452781126823], [70.75828064825696, 27.721754358691136], [70.90661186413661, 27.70938156915818], [71.20480348368845, 27.83585897327286], [71.88070448800599, 27.91421997364826], [71.92810930957577, 28.121807886923445], [72.20642148782417, 28.394009256648523], [72.40368671306616, 28.78306474974043], [72.94501919163721, 29.02777103161449], [73.28296969379599, 29.572173771064644], [73.397658778239, 29.94610696583849], [73.96804582486897, 30.19356275649765], [73.89464481082543, 29.973602053689508], [74.52619936915833, 29.940607948268283], [74.48032373538112, 29.745392824526057], [74.61642144892018, 29.752266596488813], [74.60265875878702, 29.364585857789457], [74.85038718118393, 29.403078980780883], [75.08129453786255, 29.22848517292692], [75.40548234988816, 29.26010452395559], [75.56145950473066, 28.612595205064117], [76.05538716173194, 28.22079020318711], [75.9712818331404, 27.85235602598347], [76.22512700670761, 27.83310946448776], [76.15937193162694, 27.998079991593865], [76.3184074620546, 28.015951798697028], [76.3122907108843, 28.178172817018034], [76.5386105041852, 27.9747091669205], [76.85362318945536, 28.22079020318711], [76.96984146169095, 28.138304939634057], [76.8918528842697, 27.732752393831543], [76.97748740065381, 27.65439139345614], [77.04477166352706, 27.8207366749548], [77.28332495916854, 27.798740604673984], [77.33990490749376, 27.52653923494891], [77.64574246600849, 27.24196507569087], [77.55093282286893, 27.111363408398535], [77.66103434393422, 26.971138460358347], [77.39801404361157, 26.830913512318155], [77.45459399193679, 26.742929231194896], [77.76043155045151, 26.93264533736692], [78.2711802731711, 26.920272547833964], [78.08920692585484, 26.6755662659599], [77.90417520295343, 26.659069213249293], [76.54625644314807, 25.838340840896407], [76.51567268729659, 25.527646348179903], [76.67012065434653, 25.348928277148286], [77.22368663525818, 25.318683680512166], [77.31390871502002, 25.43141354070134], [77.41177673374473, 25.223825627426155], [77.31237952722745, 25.080851170600862], [76.87656100634396, 25.040983293216886], [76.9499620203875, 24.869138994148024], [76.804689180093, 24.807275046483234], [77.03406734897905, 24.70829273021957], [77.06923866820824, 24.55706974703897], [76.97748740065381, 24.460836939560405], [76.8169226824336, 24.533698922365602], [76.88114856972169, 24.130895885348192], [76.64412446187278, 24.26974607899583], [76.11808386122746, 24.194134587405532], [76.1272589879829, 24.08827849917911], [75.68991127930684, 23.74733940982649], [75.46206229821338, 23.917808954502803], [75.52170062212375, 24.02503979712177], [75.70214478164743, 23.96592535824208], [75.83671330739391, 24.05665914815044], [75.72814097412119, 24.396223483110514], [75.900939194682, 24.442965132457246], [75.92081863598546, 24.54332220311346], [75.78472092244641, 24.761908151529052], [75.60886432630045, 24.6821723967611], [75.18375011996498, 24.748160607603545], [75.35196077714808, 25.01898722293607], [75.19139605892785, 25.03685903003923], [75.03847727967049, 24.845768169474656], [74.82592017650276, 24.899383590784144], [74.99260164589327, 24.693170431901507], [74.88861687599828, 24.634055993021818], [74.80451154740673, 24.735787818070584], [74.69746840192657, 24.48283300984122], [74.85497474456166, 24.423718570961533], [74.7540483502518, 24.242250991144815], [74.90849631730173, 24.212006394508695], [74.94060926094578, 23.76521121692965], [74.84732880559879, 23.55212428608426], [74.57207500293553, 23.420147864399375], [74.52925774474348, 23.321165548135713], [74.73416890894833, 23.220808477479498]]]}}, {"type": "Feature", "properties": {"name": "Delhi"}, "geometry": {"type": "Polygon", "coordinates": [[[77.21604069629531, 28.853177223760525], [77.34755084645664, 28.520486660763208], [77.17475262589582, 28.40500729178893], [77.09676404847457, 28.5094886256228], [76.8459772504925, 28.550731257399327], [76.96831227389838, 28.811934591984], [77.21604069629531, 28.853177223760525]]]}}, {"type": "Feature", "properties": {"name": "Haryana"}, "geometry": {"type": "Polygon", "coordinates": [[[76.05538716173194, 28.22079020318711], [75.56145950473066, 28.612595205064117], [75.40548234988816, 29.26010452395559], [75.08129453786255, 29.22848517292692], [74.85038718118393, 29.403078980780883], [74.60265875878702, 29.364585857789457], [74.61642144892018, 29.752266596488813], [74.48032373538112, 29.745392824526057], [74.48491129875885, 29.814130544153603], [74.52619936915833, 29.940607948268283], [74.8121574863696, 29.992848615185217], [75.19139605892785, 29.844375140789722], [75.24185925608278, 29.750891842096262], [75.16845824203925, 29.667031824150655], [75.30302676778572, 29.559800981531687], [75.4605331104208, 29.807256772190847], [76.04927041056165, 29.746767578918607], [76.21442269215959, 29.840250877612068], [76.2541815747665, 30.08908142266378], [76.57684019899953, 30.10145421219674], [76.64259527408021, 30.14957061593602], [76.5615483210738, 30.24167916023693], [76.74810923176778, 30.428645757623855], [76.91173232557315, 30.42589624883875], [76.92549501570632, 30.610113337440573], [76.77716379982668, 30.904310777446465], [76.91631988895088, 30.90018651426881], [77.16710668693295, 30.68435007463832], [77.12276024094831, 30.56337168809384], [77.20839475733244, 30.48776019650354], [77.57998739092783, 30.379154599492022], [77.11970186536317, 29.755016105273913], [77.21604069629531, 28.853177223760525], [76.94231608142462, 28.798187048058487], [76.97137064948353, 28.69782997740227], [76.8459772504925, 28.550731257399327], [77.09676404847457, 28.5094886256228], [77.17475262589582, 28.40500729178893], [77.34755084645664, 28.520486660763208], [77.50505718909172, 28.37063843197516], [77.5295241937729, 27.92659276318122], [77.28332495916854, 27.798740604673984], [77.04477166352706, 27.8207366749548], [76.97748740065381, 27.65439139345614], [76.8918528842697, 27.732752393831543], [76.96984146169095, 28.138304939634057], [76.85362318945536, 28.22079020318711], [76.5386105041852, 27.9747091669205], [76.3122907108843, 28.178172817018034], [76.3184074620546, 28.015951798697028], [76.15937193162694, 27.998079991593865], [76.17619299734525, 27.798740604673984], [75.93305213832605, 27.92796751757377], [76.05538716173194, 28.22079020318711]]]}}, {"type": "Feature", "properties": {"name": "Sikkim"}, "geometry": {"type": "Polygon", "coordinates": [[[88.91891487286112, 27.320326076066273], [88.72164964761913, 27.138858496249554], [88.53203036133999, 27.17597686484843], [88.42498721585984, 27.071495531014563], [88.09621184045652, 27.133359478679353], [88.04421945550902, 27.478422831209627], [88.20478417372925, 27.94171506149928], [88.75682096684832, 28.076440991969267], [88.88833111700964, 27.856480289161123], [88.79352147387009, 27.416558883544837], [88.91891487286112, 27.320326076066273]]]}}, {"type": "Feature", "properties": {"name": "Bihar"}, "geometry": {"type": "Polygon", "coordinates": [[[85.67703675260508, 24.59143860685274], [84.90326772956283, 24.37285265843715], [84.80234133525298, 24.5309494135805], [84.49650377673825, 24.287617886098992], [84.32676393176257, 24.489706781803974], [84.09279819949882, 24.533698922365602], [84.00869287090727, 24.642304519377124], [83.87259515736821, 24.53232416797305], [83.50253171156541, 24.5254503960103], [83.53005709183172, 24.643679273769674], [83.39548856608525, 24.781154713024765], [83.34961293230805, 25.18395775004218], [83.84659896489447, 25.434163049486443], [84.1402030210686, 25.731109998277436], [84.55767128844118, 25.680244085753053], [84.62495555131443, 25.791599191549675], [84.05609769247705, 26.099544175481075], [84.1570240867869, 26.375869808383808], [83.91541241556028, 26.50234721249849], [84.11267764080227, 26.630199371005723], [84.418515199317, 26.631574125398274], [84.06068525585476, 26.88727844241274], [83.83130708696874, 27.427556918685244], [84.09738576287654, 27.516915954201053], [84.6203679879367, 27.339572637561986], [84.64177661703275, 27.048124706341195], [85.19228422235923, 26.86940663530958], [85.25498092185475, 26.753927266335303], [85.64339462116845, 26.85290958259897], [85.85901009992133, 26.568335423340933], [86.028749944897, 26.665942985212045], [86.72300120272541, 26.42536096651564], [87.0426014513733, 26.560086896985627], [87.16187809919404, 26.404739650627377], [87.58852149332208, 26.38136882595401], [88.033515140961, 26.392366861094416], [88.10997453058968, 26.54771410745267], [88.23995549295844, 26.45835507193686], [88.27971437556535, 26.330502913429626], [87.85001260585217, 26.039054982208835], [87.82248722558585, 25.93594840276752], [88.0503362066793, 25.700865401641316], [88.06715727239762, 25.483654207618272], [87.96011412691746, 25.53864438332031], [87.7674364650532, 25.41629124238328], [87.81789966220812, 25.241697434529318], [87.55182098630031, 25.331056470045123], [87.47841997225677, 25.194955785182586], [87.327030380792, 25.223825627426155], [87.29491743714794, 25.089099696956165], [87.14505703347574, 25.01898722293607], [87.05177657812874, 24.627182221059066], [86.91262048900455, 24.547446466291113], [86.61137049386755, 24.607935659563353], [86.4523349634399, 24.37285265843715], [86.27647836729392, 24.46633595713061], [86.3009453719751, 24.56119401021662], [86.13273471479201, 24.603811396385698], [86.05474613737076, 24.779779958632215], [85.73820426430802, 24.81964783601619], [85.67703675260508, 24.59143860685274]]]}}, {"type": "Feature", "properties": {"name": "Jharkhand"}, "geometry": {"type": "Polygon", "coordinates": [[[86.03180832048216, 22.18974268306632], [85.89723979473567, 21.983529524183687], [85.3971953865641, 22.163622349607856], [85.23815985613645, 22.009649857642156], [85.02866112855386, 22.12237971783133], [85.06994919895335, 22.490813895034968], [84.29159261253338, 22.342340420639474], [84.01175124649241, 22.527932263633843], [84.39710657022096, 22.927985791866156], [84.17843271588293, 22.98022645878309], [84.06374363143992, 23.113577634860526], [84.07444794598793, 23.33353833766867], [83.96281723713005, 23.385779004585604], [84.01633880987013, 23.634609549637318], [83.7747271386435, 23.6098639705714], [83.7059136879777, 23.820201392631688], [83.32973349100459, 24.102026043104622], [83.40007612946297, 24.49795530815928], [83.87259515736821, 24.53232416797305], [84.00869287090727, 24.642304519377124], [84.09279819949882, 24.533698922365602], [84.32676393176257, 24.489706781803974], [84.49650377673825, 24.287617886098992], [84.80234133525298, 24.5309494135805], [84.90326772956283, 24.37285265843715], [85.08829945246424, 24.370103149652046], [85.3742575696755, 24.55432023825387], [85.5424682268586, 24.53232416797305], [85.67703675260508, 24.59143860685274], [85.73820426430802, 24.81964783601619], [86.05474613737076, 24.779779958632215], [86.13273471479201, 24.603811396385698], [86.3009453719751, 24.56119401021662], [86.27647836729392, 24.46633595713061], [86.4523349634399, 24.37285265843715], [86.61137049386755, 24.607935659563353], [86.91262048900455, 24.547446466291113], [87.05177657812874, 24.627182221059066], [87.14505703347574, 25.01898722293607], [87.29491743714794, 25.089099696956165], [87.327030380792, 25.223825627426155], [87.47841997225677, 25.194955785182586], [87.55182098630031, 25.331056470045123], [87.69250626321708, 25.31180990854941], [87.96011412691746, 24.921379661064957], [87.83930829130415, 24.74541109881844], [87.88977148845908, 24.565318273394276], [87.79343265752695, 24.583190080497435], [87.80107859648982, 24.382475939185007], [87.63133875151414, 24.163889990769412], [87.44019027744244, 23.982422410952694], [87.23374992544501, 24.02503979712177], [87.29491743714794, 23.90131190179219], [87.23374992544501, 23.85594500683801], [86.80098978014666, 23.833948936557196], [86.80098978014666, 23.69922300608721], [86.48597709487652, 23.63598430402987], [86.31012049873054, 23.411899338044073], [86.15873090726576, 23.558998058047017], [85.88500629239508, 23.48338656645672], [85.81925121731442, 23.268924881218776], [85.88500629239508, 23.16719305617001], [86.24130704806473, 22.9967235114937], [86.50126897280225, 22.993974002708597], [86.41869283200327, 22.790510352611065], [86.76581846091747, 22.576048667373126], [86.7642892731249, 22.426200438585077], [86.84533622613131, 22.400080105126612], [86.72758876610314, 22.21586301652479], [86.06697963971135, 22.556802105877413], [85.96299486981634, 22.485314877464766], [86.03180832048216, 22.18974268306632]]]}}, {"type": "Feature", "properties": {"name": "Ladakh"}, "geometry": {"type": "Polygon", "coordinates": [[[77.33837571970119, 32.81659413748476], [76.93314095466918, 33.028306313937605], [76.50190999716344, 33.516344123293166], [76.30923233529916, 33.571334298995204], [76.02174503029532, 33.99750816068598], [75.86423868766023, 33.978261599190276], [75.41312828885103, 34.28345707433657], [75.3565483405258, 34.529538110603184], [75.23880088049764, 34.62852042686684], [74.31975901716089, 34.786617182010204], [74.56748743955782, 34.8732267087409], [74.58736688086127, 35.00932739360344], [74.48644048655142, 35.10968446425966], [74.25247475428765, 35.036822481454465], [73.73102171702006, 35.21691530687863], [73.78454328976014, 35.52486029081003], [73.40683390499444, 35.56335341380146], [73.13616766570892, 35.71870066015971], [73.08876284413914, 35.88229643287326], [72.68964483027743, 35.83280527474143], [72.53366767543491, 35.916665292687036], [72.59483518713786, 36.26172864521732], [72.99089482541443, 36.45694376895954], [73.1254633511609, 36.686527752515545], [73.80748110664874, 36.71539759475911], [73.86253186718139, 36.78688482317176], [73.68973364662057, 36.911987472893884], [74.05520952904565, 36.80613138466747], [74.70817271647459, 37.07695799999999], [74.92072981964232, 36.90511370093113], [75.34278565039264, 37.05221242093408], [75.47276661276139, 36.810255647845125], [75.74802041542465, 36.58754543625187], [76.64259527408021, 36.18336764484191], [76.80010161671528, 36.04726695997937], [76.72211303929403, 35.95240890689336], [76.8108059312633, 35.843803309881835], [77.4301269872556, 35.654087203709814], [77.43471455063333, 35.51661176445472], [77.89958763957571, 35.467120606322894], [77.96534271465637, 35.57160194015676], [78.13661174742461, 35.538607834735544], [78.42256986463588, 35.784688871002146], [78.95931477982921, 35.89191971362112], [79.13058381259746, 35.83555478352653], [79.21468914118901, 35.97852924035183], [79.37678304720181, 35.99502629306244], [79.42112949318644, 35.89604397679877], [79.86918151641052, 35.781939362217045], [79.9976332909867, 35.83692953791909], [80.28970815936826, 35.607345554363086], [80.32640866639002, 35.469870115107994], [80.06797592944508, 34.713755199204996], [79.77437187327095, 34.6271456724743], [79.79272212678183, 34.484171215649], [79.50676400957057, 34.474547934901146], [79.59086933816212, 34.282082319944024], [79.35384523031321, 34.03600128367741], [78.90426401929656, 33.97551209040517], [79.10611680791628, 33.61670119394938], [78.91343914605201, 33.57408380778031], [78.98836934788811, 33.3335017890839], [79.4532424368305, 33.2578902974936], [79.37525385940924, 33.08467124403219], [79.62604065739131, 32.73960789150191], [79.4471256856602, 32.53201997822673], [79.31867391108402, 32.59250917149897], [78.98072340892524, 32.33817960887705], [78.76052036679465, 32.65437311916376], [78.3981028599547, 32.52514620626397], [78.31246834357059, 32.573262610003255], [78.40574879891757, 32.62000425934998], [78.38739854540668, 32.757479698605074], [78.0158059118113, 32.62000425934998], [77.74055210914806, 32.969191875057916], [77.33837571970119, 32.81659413748476]]]}}, {"type": "Feature", "properties": {"name": "Jammu and Kashmir"}, "geometry": {"type": "Polygon", "coordinates": [[[75.51252549536831, 32.30793501224093], [74.68064733620827, 32.49215210084275], [74.65923870711224, 32.78772429524119], [74.38245571665641, 32.757479698605074], [73.62703694712505, 33.090170261602395], [73.58880725231072, 33.88340354610426], [73.39001283927614, 34.37419086424493], [73.44659278760136, 34.57353025116481], [73.61786182036961, 34.58590304069777], [73.74937197053094, 34.786617182010204], [73.96345826149124, 34.841607357712235], [74.14696079660007, 35.0973116747267], [74.25247475428765, 35.036822481454465], [74.48644048655142, 35.10968446425966], [74.58736688086127, 35.00932739360344], [74.56748743955782, 34.8732267087409], [74.31975901716089, 34.786617182010204], [75.23880088049764, 34.62852042686684], [75.3565483405258, 34.529538110603184], [75.41312828885103, 34.28345707433657], [75.86423868766023, 33.978261599190276], [76.02174503029532, 33.99750816068598], [76.30923233529916, 33.571334298995204], [76.50190999716344, 33.516344123293166], [76.77257623644896, 33.251016525530844], [76.74810923176778, 33.1795292971182], [76.41015872960901, 33.18640306908095], [75.95446076742208, 32.872959067579345], [75.85047599752707, 32.92932399767393], [75.91776026040031, 32.633751803275494], [75.51252549536831, 32.30793501224093]]]}}, {"type": "Feature", "properties": {"name": "Himachal Pradesh"}, "geometry": {"type": "Polygon", "coordinates": [[[76.91631988895088, 30.90018651426881], [76.62424502056932, 30.999168830532476], [76.64565364966535, 31.209506252592764], [76.39180847609813, 31.412969902690296], [76.20066000202642, 31.302989551286224], [75.91011432143745, 31.950498870177697], [75.59816001175243, 32.08247529186258], [75.63791889435934, 32.251570082146344], [75.93152295053348, 32.39454453897164], [75.83671330739391, 32.511398662338465], [75.92387701157061, 32.74785641785722], [75.80154198816471, 32.885331857112305], [75.95446076742208, 32.872959067579345], [76.41015872960901, 33.18640306908095], [76.74810923176778, 33.1795292971182], [76.77257623644896, 33.251016525530844], [76.93314095466918, 33.028306313937605], [77.33837571970119, 32.81659413748476], [77.74055210914806, 32.969191875057916], [78.0158059118113, 32.62000425934998], [78.38739854540668, 32.757479698605074], [78.40574879891757, 32.62000425934998], [78.31246834357059, 32.573262610003255], [78.53420057349375, 32.41379110046735], [78.48220818854625, 32.27906516999737], [78.78192899589068, 31.993116256346774], [78.705469606262, 31.774530307931183], [78.84615488317877, 31.608185026432523], [78.7345241743209, 31.536697798019876], [78.74981605224663, 31.366228253343564], [79.00824878919157, 31.1105239363291], [78.37057747968838, 31.286492498575612], [77.96687190244894, 31.17376263838644], [77.70385160212629, 30.764085829406273], [77.81548231098415, 30.505632003606703], [77.57998739092783, 30.379154599492022], [77.20839475733244, 30.48776019650354], [77.12276024094831, 30.56337168809384], [77.16710668693295, 30.68435007463832], [76.91631988895088, 30.90018651426881]]]}}, {"type": "Feature", "properties": {"name": "Punjab"}, "geometry": {"type": "Polygon", "coordinates": [[[75.4605331104208, 29.807256772190847], [75.30302676778572, 29.559800981531687], [75.16845824203925, 29.667031824150655], [75.24185925608278, 29.750891842096262], [75.19139605892785, 29.844375140789722], [74.8121574863696, 29.992848615185217], [74.64700520477165, 29.911738106024714], [73.89464481082543, 29.973602053689508], [73.97569176383183, 30.1193260192999], [73.87935293289969, 30.35990803799631], [74.3656346509381, 30.89331274230606], [74.70817271647459, 31.072030813337673], [74.51090749123259, 31.132520006609912], [74.65159276814937, 31.456962043251924], [74.50326155226972, 31.74016144811741], [74.57207500293553, 31.839143764381074], [75.3794861574144, 32.182832362518795], [75.34125646260006, 32.34642813523236], [75.51252549536831, 32.30793501224093], [75.83671330739391, 32.511398662338465], [75.93152295053348, 32.39454453897164], [75.63791889435934, 32.251570082146344], [75.59816001175243, 32.08247529186258], [75.91011432143745, 31.950498870177697], [76.20066000202642, 31.302989551286224], [76.39180847609813, 31.412969902690296], [76.64565364966535, 31.209506252592764], [76.62424502056932, 30.999168830532476], [76.8459772504925, 30.83419830342637], [76.83833131152963, 30.754462548658417], [76.70987953695344, 30.761336320621172], [76.92549501570632, 30.610113337440573], [76.91173232557315, 30.42589624883875], [76.74810923176778, 30.428645757623855], [76.5615483210738, 30.24167916023693], [76.64259527408021, 30.14957061593602], [76.57684019899953, 30.10145421219674], [76.2541815747665, 30.08908142266378], [76.21442269215959, 29.840250877612068], [76.04927041056165, 29.746767578918607], [75.4605331104208, 29.807256772190847]]]}}, {"type": "Feature", "properties": {"name": "Uttarakhand"}, "geometry": {"type": "Polygon", "coordinates": [[[78.92567264839259, 29.438822594987208], [78.33540616045919, 29.79763349144299], [78.02039347518902, 29.5817970518125], [77.92711301984204, 29.713773473497387], [77.82006987436188, 29.67390559611341], [77.71608510446687, 29.88561777256625], [77.95922596348608, 30.24167916023693], [77.5753998275501, 30.401150669772836], [77.81548231098415, 30.505632003606703], [77.70385160212629, 30.764085829406273], [77.86441632034652, 31.109149181936548], [78.310939155778, 31.28374298979051], [79.00824878919157, 31.1105239363291], [78.88132620240796, 31.28374298979051], [79.13822975156033, 31.43359121857856], [79.31867391108402, 31.135269515395013], [79.60157365271013, 30.933180619690035], [79.8645939530328, 30.973048497074007], [80.24994927676134, 30.74483926791056], [80.21324876973958, 30.583993003982105], [81.04512692889962, 30.21005980920826], [80.36616754899694, 29.739893806955852], [80.408984807189, 29.59554459573801], [80.24230333779848, 29.44432161255741], [80.31876272742716, 29.301347155732117], [79.95481603279464, 28.72257555646819], [79.82024750704815, 28.887546083574296], [79.58475258699183, 28.84630345179777], [79.0357741694579, 29.16937073404723], [78.92720183618518, 29.118504821522848], [78.76052036679465, 29.26422878713324], [78.92567264839259, 29.438822594987208]]]}}, {"type": "Feature", "properties": {"name": "Chandigarh"}, "geometry": {"type": "Polygon", "coordinates": [[[76.8276269969816, 30.68160056585322], [76.70987953695344, 30.761336320621172], [76.83833131152963, 30.754462548658417], [76.8276269969816, 30.68160056585322]]]}}]}